{"type": "FeatureCollection", "features": [ {"type": "Feature", "properties": {"norad_id": 40118, "name": "GAOFEN-2", "group": "resource", "lat": -69.69564872404099, "lon": -149.11697316809222, "alt_km": 640.3529537350132, "timestamp": "2025-12-20T03:42:47.049224+00:00", "meta": {"OBJECT_NAME": "GAOFEN-2", "OBJECT_ID": "2014-049A", "EPOCH": "2025-12-19T20:05:40.314624", "MEAN_MOTION": 14.80619001, "ECCENTRICITY": 0.0008714, "INCLINATION": 98.0381, "RA_OF_ASC_NODE": 53.0185, "ARG_OF_PERICENTER": 93.1468, "MEAN_ANOMALY": 267.0741, "EPHEMERIS_TYPE": 0, "CLASSIFICATION_TYPE": "U", "NORAD_CAT_ID": 40118, "ELEMENT_SET_NO": 999, "REV_AT_EPOCH": 61269, "BSTAR": 1.0518e-05, "MEAN_MOTION_DOT": 2.7e-07, "MEAN_MOTION_DDOT": 0}, "tle": {"line1": "1 40118U 14049A   25353.83727216  .00000027  00000+0  10518-4 0  9993", "line2": "2 40118  98.0381  53.0185 0008714  93.1468 267.0741 14.80619001612699"}}, "geometry": {"type": "Point", "coordinates": [-149.11697316809222, -69.69564872404099]}}, {"type": "Feature", "properties": {"norad_id": 40143, "name": "YAOGAN-21", "group": "resource", "lat": -75.29996086743819, "lon": 65.84384277151575, "alt_km": 502.47888941095607, "timestamp": "2025-12-20T03:42:47.049234+00:00", "meta": {"OBJECT_NAME": "YAOGAN-21", "OBJECT_ID": "2014-053A", "EPOCH": "2025-12-19T20:10:13.696320", "MEAN_MOTION": 15.23743387, "ECCENTRICITY": 0.0009112, "INCLINATION": 97.1752, "RA_OF_ASC_NODE": 36.8449, "ARG_OF_PERICENTER": 19.308, "MEAN_ANOMALY": 340.8501, "EPHEMERIS_TYPE": 0, "CLASSIFICATION_TYPE": "U", "NORAD_CAT_ID": 40143, "ELEMENT_SET_NO": 999, "REV_AT_EPOCH": 62762, "BSTAR": 0.00010696, "MEAN_MOTION_DOT": 2.506e-05, "MEAN_MOTION_DDOT": 0}, "tle": {"line1": "1 40143U 14053A   25353.84043630  .00002506  00000+0  10696-3 0  9998", "line2": "2 40143  97.1752  36.8449 0009112  19.3080 340.8501 15.23743387627620"}}, "geometry": {"type": "Point", "coordinates": [65.84384277151575, -75.29996086743819]}}, {"type": "Feature", "properties": {"norad_id": 40275, "name": "YAOGAN-22", "group": "resource", "lat": -29.45806737640823, "lon": 143.83365854447445, "alt_km": 1208.3160739494397, "timestamp": "2025-12-20T03:42:47.049245+00:00", "meta": {"OBJECT_NAME": "YAOGAN-22", "OBJECT_ID": "2014-063A", "EPOCH": "2025-12-19T15:05:19.788000", "MEAN_MOTION": 13.15522939, "ECCENTRICITY": 0.000601, "INCLINATION": 100.7426, "RA_OF_ASC_NODE": 137.1455, "ARG_OF_PERICENTER": 231.5131, "MEAN_ANOMALY": 128.5441, "EPHEMERIS_TYPE": 0, "CLASSIFICATION_TYPE": "U", "NORAD_CAT_ID": 40275, "ELEMENT_SET_NO": 999, "REV_AT_EPOCH": 53620, "BSTAR": -1.3452e-05, "MEAN_MOTION_DOT": -5.2e-07, "MEAN_MOTION_DDOT": 0}, "tle": {"line1": "1 40275U 14063A   25353.62870125 -.00000052  00000+0 -13452-4 0  9998", "line2": "2 40275 100.7426 137.1455 0006010 231.5131 128.5441 13.15522939536200"}}, "geometry": {"type": "Point", "coordinates": [143.83365854447445, -29.45806737640823]}}, {"type": "Feature", "properties": {"norad_id": 40298, "name": "ASNARO", "group": "resource", "lat": -40.30261868249349, "lon": -116.37788800705671, "alt_km": 515.5064310601501, "timestamp": "2025-12-20T03:42:47.049256+00:00", "meta": {"OBJECT_NAME": "ASNARO", "OBJECT_ID": "2014-070A", "EPOCH": "2025-12-19T20:25:27.689952", "MEAN_MOTION": 15.19631019, "ECCENTRICITY": 0.0005789, "INCLINATION": 97.3653, "RA_OF_ASC_NODE": 69.6243, "ARG_OF_PERICENTER": 102.0823, "MEAN_ANOMALY": 258.1061, "EPHEMERIS_TYPE": 0, "CLASSIFICATION_TYPE": "U", "NORAD_CAT_ID": 40298, "ELEMENT_SET_NO": 999, "REV_AT_EPOCH": 61677, "BSTAR": 0.0002801, "MEAN_MOTION_DOT": 5.905e-05, "MEAN_MOTION_DDOT": 0}, "tle": {"line1": "1 40298U 14070A   25353.85101493  .00005905  00000+0  28010-3 0  9996", "line2": "2 40298  97.3653  69.6243 0005789 102.0823 258.1061 15.19631019616779"}}, "geometry": {"type": "Point", "coordinates": [-116.37788800705671, -40.30261868249349]}}, {"type": "Feature", "properties": {"norad_id": 40310, "name": "YAOGAN-24", "group": "resource", "lat": 61.95489218232828, "lon": -39.162817042901665, "alt_km": 624.7727473835512, "timestamp": "2025-12-20T03:42:47.049266+00:00", "meta": {"OBJECT_NAME": "YAOGAN-24", "OBJECT_ID": "2014-072A", "EPOCH": "2025-12-19T20:40:44.413824", "MEAN_MOTION": 14.76191327, "ECCENTRICITY": 0.0015051, "INCLINATION": 98.1221, "RA_OF_ASC_NODE": 124.9927, "ARG_OF_PERICENTER": 116.528, "MEAN_ANOMALY": 243.7474, "EPHEMERIS_TYPE": 0, "CLASSIFICATION_TYPE": "U", "NORAD_CAT_ID": 40310, "ELEMENT_SET_NO": 999, "REV_AT_EPOCH": 59726, "BSTAR": 0.00013588, "MEAN_MOTION_DOT": 8.88e-06, "MEAN_MOTION_DDOT": 0}, "tle": {"line1": "1 40310U 14072A   25353.86162516  .00000888  00000+0  13588-3 0  9996", "line2": "2 40310  98.1221 124.9927 0015051 116.5280 243.7474 14.76191327597263"}}, "geometry": {"type": "Point", "coordinates": [-39.162817042901665, 61.95489218232828]}}, {"type": "Feature", "properties": {"norad_id": 40336, "name": "CBERS 4", "group": "resource", "lat": -33.198307747821026, "lon": -133.58369459381072, "alt_km": 779.9035306467913, "timestamp": "2025-12-20T03:42:47.049277+00:00", "meta": {"OBJECT_NAME": "CBERS 4", "OBJECT_ID": "2014-079A", "EPOCH": "2025-12-19T20:01:49.442592", "MEAN_MOTION": 14.3551978, "ECCENTRICITY": 0.0001792, "INCLINATION": 98.3305, "RA_OF_ASC_NODE": 51.6089, "ARG_OF_PERICENTER": 104.3372, "MEAN_ANOMALY": 255.8013, "EPHEMERIS_TYPE": 0, "CLASSIFICATION_TYPE": "U", "NORAD_CAT_ID": 40336, "ELEMENT_SET_NO": 999, "REV_AT_EPOCH": 57822, "BSTAR": 1.4821e-05, "MEAN_MOTION_DOT": 1e-08, "MEAN_MOTION_DDOT": 0}, "tle": {"line1": "1 40336U 14079A   25353.83460003  .00000001  00000+0  14821-4 0  9999", "line2": "2 40336  98.3305  51.6089 0001792 104.3372 255.8013 14.35519780578225"}}, "geometry": {"type": "Point", "coordinates": [-133.58369459381072, -33.198307747821026]}}, {"type": "Feature", "properties": {"norad_id": 40362, "name": "YAOGAN-26", "group": "resource", "lat": 55.90536288615516, "lon": -15.990023462112783, "alt_km": 439.8456533361623, "timestamp": "2025-12-20T03:42:47.049287+00:00", "meta": {"OBJECT_NAME": "YAOGAN-26", "OBJECT_ID": "2014-088A", "EPOCH": "2025-12-19T21:13:43.590720", "MEAN_MOTION": 15.3953668, "ECCENTRICITY": 0.0005166, "INCLINATION": 97.0637, "RA_OF_ASC_NODE": 354.3047, "ARG_OF_PERICENTER": 9.052, "MEAN_ANOMALY": 351.0818, "EPHEMERIS_TYPE": 0, "CLASSIFICATION_TYPE": "U", "NORAD_CAT_ID": 40362, "ELEMENT_SET_NO": 999, "REV_AT_EPOCH": 61004, "BSTAR": 0.00031687, "MEAN_MOTION_DOT": 0.00012383, "MEAN_MOTION_DDOT": 0}, "tle": {"line1": "1 40362U 14088A   25353.88453230  .00012383  00000+0  31687-3 0  9991", "line2": "2 40362  97.0637 354.3047 0005166   9.0520 351.0818 15.39536680610042"}}, "geometry": {"type": "Point", "coordinates": [-15.990023462112783, 55.90536288615516]}}, {"type": "Feature", "properties": {"norad_id": 40376, "name": "SMAP", "group": "resource", "lat": 75.56318999983807, "lon": -34.95211950988632, "alt_km": 674.3493369644602, "timestamp": "2025-12-20T03:42:47.049298+00:00", "meta": {"OBJECT_NAME": "SMAP", "OBJECT_ID": "2015-003A", "EPOCH": "2025-12-19T19:09:09.440352", "MEAN_MOTION": 14.63353304, "ECCENTRICITY": 0.0001223, "INCLINATION": 98.1288, "RA_OF_ASC_NODE": 358.4201, "ARG_OF_PERICENTER": 91.7579, "MEAN_ANOMALY": 268.3763, "EPHEMERIS_TYPE": 0, "CLASSIFICATION_TYPE": "U", "NORAD_CAT_ID": 40376, "ELEMENT_SET_NO": 999, "REV_AT_EPOCH": 58138, "BSTAR": 8.2005e-05, "MEAN_MOTION_DOT": 3.77e-06, "MEAN_MOTION_DDOT": 0}, "tle": {"line1": "1 40376U 15003A   25353.79802593  .00000377  00000+0  82005-4 0  9995", "line2": "2 40376  98.1288 358.4201 0001223  91.7579 268.3763 14.63353304581389"}}, "geometry": {"type": "Point", "coordinates": [-34.95211950988632, 75.56318999983807]}}, {"type": "Feature", "properties": {"norad_id": 40536, "name": "KOMPSAT-3A", "group": "resource", "lat": 57.7059398925411, "lon": 161.23823464104603, "alt_km": 424.59303859378906, "timestamp": "2025-12-20T03:42:47.049308+00:00", "meta": {"OBJECT_NAME": "KOMPSAT-3A", "OBJECT_ID": "2015-014A", "EPOCH": "2025-12-19T20:58:06.911040", "MEAN_MOTION": 15.441932, "ECCENTRICITY": 0.0005414, "INCLINATION": 97.6789, "RA_OF_ASC_NODE": 328.6151, "ARG_OF_PERICENTER": 111.1559, "MEAN_ANOMALY": 249.0267, "EPHEMERIS_TYPE": 0, "CLASSIFICATION_TYPE": "U", "NORAD_CAT_ID": 40536, "ELEMENT_SET_NO": 999, "REV_AT_EPOCH": 59405, "BSTAR": 0.00030729, "MEAN_MOTION_DOT": 0.00014017, "MEAN_MOTION_DDOT": 0}, "tle": {"line1": "1 40536U 15014A   25353.87369110  .00014017  00000+0  30729-3 0  9998", "line2": "2 40536  97.6789 328.6151 0005414 111.1559 249.0267 15.44193200594051"}}, "geometry": {"type": "Point", "coordinates": [161.23823464104603, 57.7059398925411]}}, {"type": "Feature", "properties": {"norad_id": 40697, "name": "SENTINEL-2A", "group": "resource", "lat": 20.340844094986842, "lon": -110.21062856815566, "alt_km": 788.7652025284797, "timestamp": "2025-12-20T03:42:47.049318+00:00", "meta": {"OBJECT_NAME": "SENTINEL-2A", "OBJECT_ID": "2015-028A", "EPOCH": "2025-12-19T20:15:27.640224", "MEAN_MOTION": 14.30807056, "ECCENTRICITY": 0.000107, "INCLINATION": 98.5745, "RA_OF_ASC_NODE": 66.2766, "ARG_OF_PERICENTER": 87.8162, "MEAN_ANOMALY": 272.3143, "EPHEMERIS_TYPE": 0, "CLASSIFICATION_TYPE": "U", "NORAD_CAT_ID": 40697, "ELEMENT_SET_NO": 999, "REV_AT_EPOCH": 54808, "BSTAR": -2.4633e-05, "MEAN_MOTION_DOT": -1.08e-06, "MEAN_MOTION_DDOT": 0}, "tle": {"line1": "1 40697U 15028A   25353.84406991 -.00000108  00000+0 -24633-4 0  9993", "line2": "2 40697  98.5745  66.2766 0001070  87.8162 272.3143 14.30807056548080"}}, "geometry": {"type": "Point", "coordinates": [-110.21062856815566, 20.340844094986842]}}]}